COSMOS 2251 DEB         
1 38056U 93036BRN 17346.38411139  .00001333  00000-0  10471-2 0  9999
2 38056  73.9238 121.8679 0339221 312.9569  44.3546 13.69158439359591
